IRIDIUM 7               
1 24793U 97020B   25341.05785918  .00000784  00000+0  26296-3 0  9997
2 24793  86.3953 104.4801 0001658  94.2178 265.9208 14.36097810496707
IRIDIUM 5               
1 24795U 97020D   25341.03895520  .00007426  00000+0  58610-3 0  9993
2 24795  86.3883   3.9027 0102525 236.2169 122.9265 14.96429001511291
IRIDIUM 4               
1 24796U 97020E   25341.28103343  .00000882  00000+0  29103-3 0  9990
2 24796  86.3948 101.1469 0001895  91.7398 268.4016 14.37003882497328
IRIDIUM 914             
1 24836U 97030A   25341.07667431  .00000923  00000+0  28092-3 0  9998
2 24836  86.3927 109.3266 0002655  56.8540 303.2914 14.41058736632027
IRIDIUM 16              
1 24841U 97030F   25341.15781059  .00000917  00000+0  29181-3 0  9999
2 24841  86.4029 132.6617 0001858 158.9274 201.2001 14.38878314491876
IRIDIUM 911             
1 24842U 97030G   25340.90988422  .00001224  00000+0  32490-3 0  9994
2 24842  86.4454 131.3457 0012412 237.3350 122.6656 14.47880320500077
IRIDIUM 17              
1 24870U 97034B   25341.25005821  .00000841  00000+0  27164-3 0  9997
2 24870  86.3972 162.0439 0002842 123.7515 236.3954 14.38015840488458
IRIDIUM 920             
1 24871U 97034C   25341.19550382  .00000923  00000+0  27696-3 0  9999
2 24871  86.3974 140.9066 0010049 223.6906 136.3500 14.41719390491505
